{"type": "FeatureCollection", "features": [ {"type": "Feature", "properties": {"norad_id": 66859, "name": "STARLINK-35646", "group": "last-30-days", "lat": -17.42785642306185, "lon": -117.93694631625159, "alt_km": 415.09528771676014, "timestamp": "2025-12-25T22:42:15.709725+00:00", "meta": {"OBJECT_NAME": "STARLINK-35646", "OBJECT_ID": "2025-281M", "EPOCH": "2025-12-25T18:00:02.000160", "MEAN_MOTION": 15.51885924, "ECCENTRICITY": 0.0001124, "INCLINATION": 43.0002, "RA_OF_ASC_NODE": 43.5249, "ARG_OF_PERICENTER": 281.5684, "MEAN_ANOMALY": 268.4338, "EPHEMERIS_TYPE": 0, "CLASSIFICATION_TYPE": "U", "NORAD_CAT_ID": 66859, "ELEMENT_SET_NO": 999, "REV_AT_EPOCH": 347, "BSTAR": -0.034016, "MEAN_MOTION_DOT": -0.01849157, "MEAN_MOTION_DDOT": 0}, "tle": {"line1": "1 66859U 25281M   25359.75002315 -.01849157  00000+0 -34016-1 0  9990", "line2": "2 66859  43.0002  43.5249 0001124 281.5684 268.4338 15.51885924  3470"}}, "geometry": {"type": "Point", "coordinates": [-117.93694631625159, -17.42785642306185]}}, {"type": "Feature", "properties": {"norad_id": 66860, "name": "STARLINK-35987", "group": "last-30-days", "lat": -23.357729255809694, "lon": -110.03770561590495, "alt_km": 415.354007906094, "timestamp": "2025-12-25T22:42:15.709735+00:00", "meta": {"OBJECT_NAME": "STARLINK-35987", "OBJECT_ID": "2025-281N", "EPOCH": "2025-12-25T18:00:02.000160", "MEAN_MOTION": 15.51828258, "ECCENTRICITY": 0.0001362, "INCLINATION": 43.0004, "RA_OF_ASC_NODE": 43.5011, "ARG_OF_PERICENTER": 286.3834, "MEAN_ANOMALY": 273.13, "EPHEMERIS_TYPE": 0, "CLASSIFICATION_TYPE": "U", "NORAD_CAT_ID": 66860, "ELEMENT_SET_NO": 999, "REV_AT_EPOCH": 348, "BSTAR": -0.029561, "MEAN_MOTION_DOT": -0.01628701, "MEAN_MOTION_DDOT": 0}, "tle": {"line1": "1 66860U 25281N   25359.75002315 -.01628701  00000+0 -29561-1 0  9991", "line2": "2 66860  43.0004  43.5011 0001362 286.3834 273.1300 15.51828258  3485"}}, "geometry": {"type": "Point", "coordinates": [-110.03770561590495, -23.357729255809694]}}, {"type": "Feature", "properties": {"norad_id": 66861, "name": "STARLINK-35991", "group": "last-30-days", "lat": -19.810357713547816, "lon": -114.89151860358588, "alt_km": 415.27673366372164, "timestamp": "2025-12-25T22:42:15.709745+00:00", "meta": {"OBJECT_NAME": "STARLINK-35991", "OBJECT_ID": "2025-281P", "EPOCH": "2025-12-25T18:00:02.000160", "MEAN_MOTION": 15.51797798, "ECCENTRICITY": 0.0001006, "INCLINATION": 43.0005, "RA_OF_ASC_NODE": 43.5157, "ARG_OF_PERICENTER": 288.5228, "MEAN_ANOMALY": 265.2474, "EPHEMERIS_TYPE": 0, "CLASSIFICATION_TYPE": "U", "NORAD_CAT_ID": 66861, "ELEMENT_SET_NO": 999, "REV_AT_EPOCH": 348, "BSTAR": -0.028827, "MEAN_MOTION_DOT": -0.01590505, "MEAN_MOTION_DDOT": 0}, "tle": {"line1": "1 66861U 25281P   25359.75002315 -.01590505  00000+0 -28827-1 0  9996", "line2": "2 66861  43.0005  43.5157 0001006 288.5228 265.2474 15.51797798  3482"}}, "geometry": {"type": "Point", "coordinates": [-114.89151860358588, -19.810357713547816]}}, {"type": "Feature", "properties": {"norad_id": 66862, "name": "STARLINK-35974", "group": "last-30-days", "lat": -18.605950147327125, "lon": -116.44975472861033, "alt_km": 414.8961598443984, "timestamp": "2025-12-25T22:42:15.709757+00:00", "meta": {"OBJECT_NAME": "STARLINK-35974", "OBJECT_ID": "2025-281Q", "EPOCH": "2025-12-25T18:00:02.000160", "MEAN_MOTION": 15.5185858, "ECCENTRICITY": 0.0001056, "INCLINATION": 43.0004, "RA_OF_ASC_NODE": 43.5203, "ARG_OF_PERICENTER": 269.067, "MEAN_ANOMALY": 282.7735, "EPHEMERIS_TYPE": 0, "CLASSIFICATION_TYPE": "U", "NORAD_CAT_ID": 66862, "ELEMENT_SET_NO": 999, "REV_AT_EPOCH": 337, "BSTAR": -0.031168, "MEAN_MOTION_DOT": -0.01709367, "MEAN_MOTION_DDOT": 0}, "tle": {"line1": "1 66862U 25281Q   25359.75002315 -.01709367  00000+0 -31168-1 0  9997", "line2": "2 66862  43.0004  43.5203 0001056 269.0670 282.7735 15.51858580  3373"}}, "geometry": {"type": "Point", "coordinates": [-116.44975472861033, -18.605950147327125]}}, {"type": "Feature", "properties": {"norad_id": 66863, "name": "STARLINK-36134", "group": "last-30-days", "lat": -21.007964020677882, "lon": -113.29998983721438, "alt_km": 415.4174161847295, "timestamp": "2025-12-25T22:42:15.709771+00:00", "meta": {"OBJECT_NAME": "STARLINK-36134", "OBJECT_ID": "2025-281R", "EPOCH": "2025-12-25T18:00:02.000160", "MEAN_MOTION": 15.51794231, "ECCENTRICITY": 9.75e-05, "INCLINATION": 43.0005, "RA_OF_ASC_NODE": 43.5112, "ARG_OF_PERICENTER": 292.3313, "MEAN_ANOMALY": 263.3577, "EPHEMERIS_TYPE": 0, "CLASSIFICATION_TYPE": "U", "NORAD_CAT_ID": 66863, "ELEMENT_SET_NO": 999, "REV_AT_EPOCH": 348, "BSTAR": -0.028716, "MEAN_MOTION_DOT": -0.0158476, "MEAN_MOTION_DDOT": 0}, "tle": {"line1": "1 66863U 25281R   25359.75002315 -.01584760  00000+0 -28716-1 0  9991", "line2": "2 66863  43.0005  43.5112 0000975 292.3313 263.3577 15.51794231  3489"}}, "geometry": {"type": "Point", "coordinates": [-113.29998983721438, -21.007964020677882]}}, {"type": "Feature", "properties": {"norad_id": 66864, "name": "STARLINK-36070", "group": "last-30-days", "lat": -22.196184571778, "lon": -111.67598461177573, "alt_km": 415.1700937628675, "timestamp": "2025-12-25T22:42:15.709781+00:00", "meta": {"OBJECT_NAME": "STARLINK-36070", "OBJECT_ID": "2025-281S", "EPOCH": "2025-12-25T18:00:02.000160", "MEAN_MOTION": 15.51858726, "ECCENTRICITY": 0.0001069, "INCLINATION": 43.0003, "RA_OF_ASC_NODE": 43.5054, "ARG_OF_PERICENTER": 271.8883, "MEAN_ANOMALY": 285.7033, "EPHEMERIS_TYPE": 0, "CLASSIFICATION_TYPE": "U", "NORAD_CAT_ID": 66864, "ELEMENT_SET_NO": 999, "REV_AT_EPOCH": 351, "BSTAR": -0.031244, "MEAN_MOTION_DOT": -0.01713115, "MEAN_MOTION_DDOT": 0}, "tle": {"line1": "1 66864U 25281S   25359.75002315 -.01713115  00000+0 -31244-1 0  9990", "line2": "2 66864  43.0003  43.5054 0001069 271.8883 285.7033 15.51858726  3511"}}, "geometry": {"type": "Point", "coordinates": [-111.67598461177573, -22.196184571778]}}, {"type": "Feature", "properties": {"norad_id": 66865, "name": "STARLINK-36117", "group": "last-30-days", "lat": -24.50674262252384, "lon": -108.36343706391351, "alt_km": 415.4535116359584, "timestamp": "2025-12-25T22:42:15.709791+00:00", "meta": {"OBJECT_NAME": "STARLINK-36117", "OBJECT_ID": "2025-281T", "EPOCH": "2025-12-25T18:00:02.000160", "MEAN_MOTION": 15.5182305, "ECCENTRICITY": 0.0001251, "INCLINATION": 43.0003, "RA_OF_ASC_NODE": 43.4965, "ARG_OF_PERICENTER": 287.0732, "MEAN_ANOMALY": 274.36, "EPHEMERIS_TYPE": 0, "CLASSIFICATION_TYPE": "U", "NORAD_CAT_ID": 66865, "ELEMENT_SET_NO": 999, "REV_AT_EPOCH": 348, "BSTAR": -0.029425, "MEAN_MOTION_DOT": -0.01621638, "MEAN_MOTION_DDOT": 0}, "tle": {"line1": "1 66865U 25281T   25359.75002315 -.01621638  00000+0 -29425-1 0  9997", "line2": "2 66865  43.0003  43.4965 0001251 287.0732 274.3600 15.51823050  3489"}}, "geometry": {"type": "Point", "coordinates": [-108.36343706391351, -24.50674262252384]}}, {"type": "Feature", "properties": {"norad_id": 66866, "name": "STARLINK-36126", "group": "last-30-days", "lat": -25.639038152834544, "lon": -106.65588601644176, "alt_km": 415.4048170053902, "timestamp": "2025-12-25T22:42:15.709801+00:00", "meta": {"OBJECT_NAME": "STARLINK-36126", "OBJECT_ID": "2025-281U", "EPOCH": "2025-12-25T18:00:02.000160", "MEAN_MOTION": 15.51852985, "ECCENTRICITY": 0.0001008, "INCLINATION": 43.0002, "RA_OF_ASC_NODE": 43.4911, "ARG_OF_PERICENTER": 272.0659, "MEAN_ANOMALY": 291.2788, "EPHEMERIS_TYPE": 0, "CLASSIFICATION_TYPE": "U", "NORAD_CAT_ID": 66866, "ELEMENT_SET_NO": 999, "REV_AT_EPOCH": 351, "BSTAR": -0.031142, "MEAN_MOTION_DOT": -0.01707739, "MEAN_MOTION_DDOT": 0}, "tle": {"line1": "1 66866U 25281U   25359.75002315 -.01707739  00000+0 -31142-1 0  9994", "line2": "2 66866  43.0002  43.4911 0001008 272.0659 291.2788 15.51852985  3510"}}, "geometry": {"type": "Point", "coordinates": [-106.65588601644176, -25.639038152834544]}}, {"type": "Feature", "properties": {"norad_id": 66867, "name": "STARLINK-36101", "group": "last-30-days", "lat": -26.750887147353737, "lon": -104.91485834707024, "alt_km": 415.3412912919366, "timestamp": "2025-12-25T22:42:15.709810+00:00", "meta": {"OBJECT_NAME": "STARLINK-36101", "OBJECT_ID": "2025-281V", "EPOCH": "2025-12-25T18:00:02.000160", "MEAN_MOTION": 15.51867511, "ECCENTRICITY": 0.0001087, "INCLINATION": 43.0001, "RA_OF_ASC_NODE": 43.4868, "ARG_OF_PERICENTER": 264.9631, "MEAN_ANOMALY": 300.2975, "EPHEMERIS_TYPE": 0, "CLASSIFICATION_TYPE": "U", "NORAD_CAT_ID": 66867, "ELEMENT_SET_NO": 999, "REV_AT_EPOCH": 331, "BSTAR": -0.031665, "MEAN_MOTION_DOT": -0.01734183, "MEAN_MOTION_DDOT": 0}, "tle": {"line1": "1 66867U 25281V   25359.75002315 -.01734183  00000+0 -31665-1 0  9998", "line2": "2 66867  43.0001  43.4868 0001087 264.9631 300.2975 15.51867511  3316"}}, "geometry": {"type": "Point", "coordinates": [-104.91485834707024, -26.750887147353737]}}, {"type": "Feature", "properties": {"norad_id": 66868, "name": "STARLINK-36108", "group": "last-30-days", "lat": -27.83835374328471, "lon": -103.14533333261977, "alt_km": 415.4435731812846, "timestamp": "2025-12-25T22:42:15.709820+00:00", "meta": {"OBJECT_NAME": "STARLINK-36108", "OBJECT_ID": "2025-281W", "EPOCH": "2025-12-25T18:00:02.000160", "MEAN_MOTION": 15.51876032, "ECCENTRICITY": 0.0001084, "INCLINATION": 43.0001, "RA_OF_ASC_NODE": 43.4813, "ARG_OF_PERICENTER": 269.2513, "MEAN_ANOMALY": 297.9242, "EPHEMERIS_TYPE": 0, "CLASSIFICATION_TYPE": "U", "NORAD_CAT_ID": 66868, "ELEMENT_SET_NO": 999, "REV_AT_EPOCH": 331, "BSTAR": -0.031977, "MEAN_MOTION_DOT": -0.0174988, "MEAN_MOTION_DDOT": 0}, "tle": {"line1": "1 66868U 25281W   25359.75002315 -.01749880  00000+0 -31977-1 0  9995", "line2": "2 66868  43.0001  43.4813 0001084 269.2513 297.9242 15.51876032  3318"}}, "geometry": {"type": "Point", "coordinates": [-103.14533333261977, -27.83835374328471]}}]}